{
  "type": "FeatureCollection",
  "features": [
    {
      "type": "Feature",
      "properties": {
        "norad_id": 66498,
        "name": "STARLINK-35907",
        "group": "last-30-days",
        "lat": 39.29445956915136,
        "lon": -150.99230990076003,
        "alt_km": 409.6731944229796,
        "timestamp": "2025-12-08T21:31:03.446934+00:00",
        "meta_object_name": "STARLINK-35907",
        "meta_object_id": "2025-263P",
        "meta_epoch": "2025-12-08T14:00:01.999872",
        "meta_mean_motion": 15.50585531,
        "meta_eccentricity": 0.00013617,
        "meta_inclination": 42.9999,
        "meta_ra_of_asc_node": 149.4164,
        "meta_arg_of_pericenter": 264.5674,
        "meta_mean_anomaly": 213.2639,
        "meta_ephemeris_type": 0,
        "meta_classification_type": "U",
        "meta_norad_cat_id": 66498,
        "meta_element_set_no": 999,
        "meta_rev_at_epoch": 496,
        "meta_bstar": -0.00035531135,
        "meta_mean_motion_dot": -0.00021134,
        "meta_mean_motion_ddot": 0,
        "tle_line1": "1 66498U 25263P   25342.58335648 -.00021134  00000+0 -35531-3 0  9991",
        "tle_line2": "2 66498  42.9999 149.4164 0001361 264.5674 213.2639 15.50585531  4964"
      },
      "geometry": {
        "type": "Point",
        "coordinates": [
          -150.99230990076003,
          39.29445956915136
        ]
      }
    },
    {
      "type": "Feature",
      "properties": {
        "norad_id": 66499,
        "name": "STARLINK-35816",
        "group": "last-30-days",
        "lat": 40.44850966205405,
        "lon": -146.23591613426703,
        "alt_km": 409.64989273249466,
        "timestamp": "2025-12-08T21:31:03.446944+00:00",
        "meta_object_name": "STARLINK-35816",
        "meta_object_id": "2025-263Q",
        "meta_epoch": "2025-12-08T14:00:01.999872",
        "meta_mean_motion": 15.50589054,
        "meta_eccentricity": 0.00014538,
        "meta_inclination": 43,
        "meta_ra_of_asc_node": 149.4081,
        "meta_arg_of_pericenter": 263.8967,
        "meta_mean_anomaly": 217.776,
        "meta_ephemeris_type": 0,
        "meta_classification_type": "U",
        "meta_norad_cat_id": 66499,
        "meta_element_set_no": 999,
        "meta_rev_at_epoch": 496,
        "meta_bstar": -0.0011050161,
        "meta_mean_motion_dot": -0.00064658,
        "meta_mean_motion_ddot": 0,
        "tle_line1": "1 66499U 25263Q   25342.58335648 -.00064658  00000+0 -11050-2 0  9999",
        "tle_line2": "2 66499  43.0000 149.4081 0001453 263.8967 217.7760 15.50589054  4965"
      },
      "geometry": {
        "type": "Point",
        "coordinates": [
          -146.23591613426703,
          40.44850966205405
        ]
      }
    },
    {
      "type": "Feature",
      "properties": {
        "norad_id": 66500,
        "name": "STARLINK-35894",
        "group": "last-30-days",
        "lat": 16.930510101626915,
        "lon": 166.7569413944985,
        "alt_km": 412.5420166897329,
        "timestamp": "2025-12-08T21:31:03.446958+00:00",
        "meta_object_name": "STARLINK-35894",
        "meta_object_id": "2025-263R",
        "meta_epoch": "2025-12-08T14:00:01.999872",
        "meta_mean_motion": 15.5058555,
        "meta_eccentricity": 0.00010832,
        "meta_inclination": 43.0001,
        "meta_ra_of_asc_node": 149.5228,
        "meta_arg_of_pericenter": 284.5574,
        "meta_mean_anomaly": 150.3366,
        "meta_ephemeris_type": 0,
        "meta_classification_type": "U",
        "meta_norad_cat_id": 66500,
        "meta_element_set_no": 999,
        "meta_rev_at_epoch": 496,
        "meta_bstar": -0.00085437015,
        "meta_mean_motion_dot": -0.00050153,
        "meta_mean_motion_ddot": 0,
        "tle_line1": "1 66500U 25263R   25342.58335648 -.00050153  00000+0 -85437-3 0  9998",
        "tle_line2": "2 66500  43.0001 149.5228 0001083 284.5574 150.3366 15.50585550  4967"
      },
      "geometry": {
        "type": "Point",
        "coordinates": [
          166.7569413944985,
          16.930510101626915
        ]
      }
    },
    {
      "type": "Feature",
      "properties": {
        "norad_id": 66501,
        "name": "STARLINK-35897",
        "group": "last-30-days",
        "lat": 40.94930762169403,
        "lon": -143.8075384737102,
        "alt_km": 409.50008511947635,
        "timestamp": "2025-12-08T21:31:03.446968+00:00",
        "meta_object_name": "STARLINK-35897",
        "meta_object_id": "2025-263S",
        "meta_epoch": "2025-12-08T14:00:01.999872",
        "meta_mean_motion": 15.50571958,
        "meta_eccentricity": 0.0001732,
        "meta_inclination": 43.0001,
        "meta_ra_of_asc_node": 149.4032,
        "meta_arg_of_pericenter": 286.2129,
        "meta_mean_anomaly": 197.3562,
        "meta_ephemeris_type": 0,
        "meta_classification_type": "U",
        "meta_norad_cat_id": 66501,
        "meta_element_set_no": 999,
        "meta_rev_at_epoch": 496,
        "meta_bstar": 8.4885059e-05,
        "meta_mean_motion_dot": 4.64e-05,
        "meta_mean_motion_ddot": 0,
        "tle_line1": "1 66501U 25263S   25342.58335648  .00004640  00000+0  84885-4 0  9994",
        "tle_line2": "2 66501  43.0001 149.4032 0001732 286.2129 197.3562 15.50571958  4962"
      },
      "geometry": {
        "type": "Point",
        "coordinates": [
          -143.8075384737102,
          40.94930762169403
        ]
      }
    },
    {
      "type": "Feature",
      "properties": {
        "norad_id": 66502,
        "name": "STARLINK-35922",
        "group": "last-30-days",
        "lat": 42.13882795873436,
        "lon": -136.28334074911797,
        "alt_km": 409.47654552698714,
        "timestamp": "2025-12-08T21:31:03.446979+00:00",
        "meta_object_name": "STARLINK-35922",
        "meta_object_id": "2025-263T",
        "meta_epoch": "2025-12-08T14:00:01.999872",
        "meta_mean_motion": 15.50583301,
        "meta_eccentricity": 0.00015562,
        "meta_inclination": 43.0001,
        "meta_ra_of_asc_node": 149.3882,
        "meta_arg_of_pericenter": 265.7672,
        "meta_mean_anomaly": 223.5759,
        "meta_ephemeris_type": 0,
        "meta_classification_type": "U",
        "meta_norad_cat_id": 66502,
        "meta_element_set_no": 999,
        "meta_rev_at_epoch": 496,
        "meta_bstar": -0.00094742461,
        "meta_mean_motion_dot": -0.00055538,
        "meta_mean_motion_ddot": 0,
        "tle_line1": "1 66502U 25263T   25342.58335648 -.00055538  00000+0 -94742-3 0  9991",
        "tle_line2": "2 66502  43.0001 149.3882 0001556 265.7672 223.5759 15.50583301  4969"
      },
      "geometry": {
        "type": "Point",
        "coordinates": [
          -136.28334074911797,
          42.13882795873436
        ]
      }
    },
    {
      "type": "Feature",
      "properties": {
        "norad_id": 66503,
        "name": "STARLINK-35917",
        "group": "last-30-days",
        "lat": 42.647938878172276,
        "lon": -131.16797191698467,
        "alt_km": 409.3040516812862,
        "timestamp": "2025-12-08T21:31:03.446989+00:00",
        "meta_object_name": "STARLINK-35917",
        "meta_object_id": "2025-263U",
        "meta_epoch": "2025-12-08T14:00:01.999872",
        "meta_mean_motion": 15.50561937,
        "meta_eccentricity": 0.00016903,
        "meta_inclination": 43,
        "meta_ra_of_asc_node": 149.3782,
        "meta_arg_of_pericenter": 286.6995,
        "meta_mean_anomaly": 206.4484,
        "meta_ephemeris_type": 0,
        "meta_classification_type": "U",
        "meta_norad_cat_id": 66503,
        "meta_element_set_no": 999,
        "meta_rev_at_epoch": 496,
        "meta_bstar": 0.00035913324,
        "meta_mean_motion_dot": 0.0002077,
        "meta_mean_motion_ddot": 0,
        "tle_line1": "1 66503U 25263U   25342.58335648  .00020770  00000+0  35913-3 0  9995",
        "tle_line2": "2 66503  43.0000 149.3782 0001690 286.6995 206.4484 15.50561937  4963"
      },
      "geometry": {
        "type": "Point",
        "coordinates": [
          -131.16797191698467,
          42.647938878172276
        ]
      }
    },
    {
      "type": "Feature",
      "properties": {
        "norad_id": 66504,
        "name": "STARLINK-35916",
        "group": "last-30-days",
        "lat": -35.07419929836466,
        "lon": 99.88402993057224,
        "alt_km": 446.3131218764174,
        "timestamp": "2025-12-08T21:31:03.446999+00:00",
        "meta_object_name": "STARLINK-35916",
        "meta_object_id": "2025-263V",
        "meta_epoch": "2025-12-08T14:00:01.999872",
        "meta_mean_motion": 15.40670147,
        "meta_eccentricity": 0.00014143,
        "meta_inclination": 43.0003,
        "meta_ra_of_asc_node": 150.5819,
        "meta_arg_of_pericenter": 264.9694,
        "meta_mean_anomaly": 98.3528,
        "meta_ephemeris_type": 0,
        "meta_classification_type": "U",
        "meta_norad_cat_id": 66504,
        "meta_element_set_no": 999,
        "meta_rev_at_epoch": 496,
        "meta_bstar": 0.00051991951,
        "meta_mean_motion_dot": 0.00021454,
        "meta_mean_motion_ddot": 0,
        "tle_line1": "1 66504U 25263V   25342.58335648  .00021454  00000+0  51992-3 0  9991",
        "tle_line2": "2 66504  43.0003 150.5819 0001414 264.9694  98.3528 15.40670147  4961"
      },
      "geometry": {
        "type": "Point",
        "coordinates": [
          99.88402993057224,
          -35.07419929836466
        ]
      }
    }
  ]
}